GLOBALSTAR M094 [+]     
1 39074U 13005C   24086.31190295 -.00000078  00000+0  14578-3 0  9995
2 39074  51.9943 105.7644 0000379  64.9143 295.1763 12.62264139515818
GLOBALSTAR M096 [+]     
1 39075U 13005D   24086.48336021 -.00000063  00000+0  22903-3 0  9998
2 39075  52.0065 153.4082 0000374  70.9964 289.0943 12.62263857514755
GLOBALSTAR M078 [+]     
1 39076U 13005E   24086.61589066 -.00000103  00000+0  62104-5 0  9997
2 39076  51.9859 238.1260 0000379 244.1990 115.8837 12.62261628513394
GLOBALSTAR M087 [+]     
1 52888U 22064A   24086.39049169 -.00000047  00000+0  15532-3 0  9996
2 52888  51.9746 137.0888 0009771 152.4648 207.6771 13.37568616 86442
